{"type": "FeatureCollection", "features": [ {"type": "Feature", "properties": {"norad_id": 66859, "name": "STARLINK-35646", "group": "last-30-days", "lat": 42.32285571384702, "lon": 123.28336431600925, "alt_km": 400.8991919684213, "timestamp": "2025-12-25T09:48:51.006112+00:00", "meta": {"OBJECT_NAME": "STARLINK-35646", "OBJECT_ID": "2025-281M", "EPOCH": "2025-12-25T04:00:01.998720", "MEAN_MOTION": 15.54526817, "ECCENTRICITY": 0.0001095, "INCLINATION": 43.0002, "RA_OF_ASC_NODE": 46.951, "ARG_OF_PERICENTER": 275.9466, "MEAN_ANOMALY": 248.2692, "EPHEMERIS_TYPE": 0, "CLASSIFICATION_TYPE": "U", "NORAD_CAT_ID": 66859, "ELEMENT_SET_NO": 999, "REV_AT_EPOCH": 338, "BSTAR": -0.033495, "MEAN_MOTION_DOT": -0.02024176, "MEAN_MOTION_DDOT": 0}, "tle": {"line1": "1 66859U 25281M   25359.16668980 -.02024176  00000+0 -33495-1 0  9998", "line2": "2 66859  43.0002  46.9510 0001095 275.9466 248.2692 15.54526817  3385"}}, "geometry": {"type": "Point", "coordinates": [123.28336431600925, 42.32285571384702]}}, {"type": "Feature", "properties": {"norad_id": 66860, "name": "STARLINK-35987", "group": "last-30-days", "lat": 42.97680719448456, "lon": 136.2899199598196, "alt_km": 400.78284826485833, "timestamp": "2025-12-25T09:48:51.006122+00:00", "meta": {"OBJECT_NAME": "STARLINK-35987", "OBJECT_ID": "2025-281N", "EPOCH": "2025-12-25T04:00:01.998720", "MEAN_MOTION": 15.54530004, "ECCENTRICITY": 0.0001029, "INCLINATION": 43, "RA_OF_ASC_NODE": 46.927, "ARG_OF_PERICENTER": 278.5548, "MEAN_ANOMALY": 255.2447, "EPHEMERIS_TYPE": 0, "CLASSIFICATION_TYPE": "U", "NORAD_CAT_ID": 66860, "ELEMENT_SET_NO": 999, "REV_AT_EPOCH": 338, "BSTAR": -0.033597, "MEAN_MOTION_DOT": -0.02029859, "MEAN_MOTION_DDOT": 0}, "tle": {"line1": "1 66860U 25281N   25359.16668980 -.02029859  00000+0 -33597-1 0  9996", "line2": "2 66860  43.0000  46.9270 0001029 278.5548 255.2447 15.54530004  3384"}}, "geometry": {"type": "Point", "coordinates": [136.2899199598196, 42.97680719448456]}}, {"type": "Feature", "properties": {"norad_id": 66861, "name": "STARLINK-35991", "group": "last-30-days", "lat": 42.76191618650834, "lon": 128.4511606299961, "alt_km": 400.836441264265, "timestamp": "2025-12-25T09:48:51.006132+00:00", "meta": {"OBJECT_NAME": "STARLINK-35991", "OBJECT_ID": "2025-281P", "EPOCH": "2025-12-25T04:00:01.998720", "MEAN_MOTION": 15.54528722, "ECCENTRICITY": 0.0001058, "INCLINATION": 43.0002, "RA_OF_ASC_NODE": 46.9414, "ARG_OF_PERICENTER": 273.8215, "MEAN_ANOMALY": 254.2293, "EPHEMERIS_TYPE": 0, "CLASSIFICATION_TYPE": "U", "NORAD_CAT_ID": 66861, "ELEMENT_SET_NO": 999, "REV_AT_EPOCH": 338, "BSTAR": -0.033585, "MEAN_MOTION_DOT": -0.02029155, "MEAN_MOTION_DDOT": 0}, "tle": {"line1": "1 66861U 25281P   25359.16668980 -.02029155  00000+0 -33585-1 0  9993", "line2": "2 66861  43.0002  46.9414 0001058 273.8215 254.2293 15.54528722  3380"}}, "geometry": {"type": "Point", "coordinates": [128.4511606299961, 42.76191618650834]}}, {"type": "Feature", "properties": {"norad_id": 66862, "name": "STARLINK-35974", "group": "last-30-days", "lat": 42.571113825043525, "lon": 125.85463092150893, "alt_km": 400.8119001070463, "timestamp": "2025-12-25T09:48:51.006143+00:00", "meta": {"OBJECT_NAME": "STARLINK-35974", "OBJECT_ID": "2025-281Q", "EPOCH": "2025-12-25T04:00:01.998720", "MEAN_MOTION": 15.54526869, "ECCENTRICITY": 9.62e-05, "INCLINATION": 43.0001, "RA_OF_ASC_NODE": 46.9464, "ARG_OF_PERICENTER": 272.406, "MEAN_ANOMALY": 253.7277, "EPHEMERIS_TYPE": 0, "CLASSIFICATION_TYPE": "U", "NORAD_CAT_ID": 66862, "ELEMENT_SET_NO": 999, "REV_AT_EPOCH": 328, "BSTAR": -0.033494, "MEAN_MOTION_DOT": -0.02024036, "MEAN_MOTION_DDOT": 0}, "tle": {"line1": "1 66862U 25281Q   25359.16668980 -.02024036  00000+0 -33494-1 0  9996", "line2": "2 66862  43.0001  46.9464 0000962 272.4060 253.7277 15.54526869  3286"}}, "geometry": {"type": "Point", "coordinates": [125.85463092150893, 42.571113825043525]}}, {"type": "Feature", "properties": {"norad_id": 66863, "name": "STARLINK-36134", "group": "last-30-days", "lat": 42.89326816495161, "lon": 131.05823418244873, "alt_km": 400.67342863967406, "timestamp": "2025-12-25T09:48:51.006153+00:00", "meta": {"OBJECT_NAME": "STARLINK-36134", "OBJECT_ID": "2025-281R", "EPOCH": "2025-12-25T04:00:01.998720", "MEAN_MOTION": 15.54529603, "ECCENTRICITY": 8.7e-05, "INCLINATION": 43.0002, "RA_OF_ASC_NODE": 46.9371, "ARG_OF_PERICENTER": 286.9805, "MEAN_ANOMALY": 242.9868, "EPHEMERIS_TYPE": 0, "CLASSIFICATION_TYPE": "U", "NORAD_CAT_ID": 66863, "ELEMENT_SET_NO": 999, "REV_AT_EPOCH": 338, "BSTAR": -0.033624, "MEAN_MOTION_DOT": -0.02031215, "MEAN_MOTION_DDOT": 0}, "tle": {"line1": "1 66863U 25281R   25359.16668980 -.02031215  00000+0 -33624-1 0  9999", "line2": "2 66863  43.0002  46.9371 0000870 286.9805 242.9868 15.54529603  3386"}}, "geometry": {"type": "Point", "coordinates": [131.05823418244873, 42.89326816495161]}}, {"type": "Feature", "properties": {"norad_id": 66864, "name": "STARLINK-36070", "group": "last-30-days", "lat": 42.96473135764045, "lon": 133.67078279025958, "alt_km": 400.8433000752002, "timestamp": "2025-12-25T09:48:51.006163+00:00", "meta": {"OBJECT_NAME": "STARLINK-36070", "OBJECT_ID": "2025-281S", "EPOCH": "2025-12-25T04:00:01.998720", "MEAN_MOTION": 15.54526567, "ECCENTRICITY": 0.0001111, "INCLINATION": 42.9999, "RA_OF_ASC_NODE": 46.9313, "ARG_OF_PERICENTER": 275.9224, "MEAN_ANOMALY": 255.9619, "EPHEMERIS_TYPE": 0, "CLASSIFICATION_TYPE": "U", "NORAD_CAT_ID": 66864, "ELEMENT_SET_NO": 999, "REV_AT_EPOCH": 341, "BSTAR": -0.033493, "MEAN_MOTION_DOT": -0.02024049, "MEAN_MOTION_DDOT": 0}, "tle": {"line1": "1 66864U 25281S   25359.16668980 -.02024049  00000+0 -33493-1 0  9991", "line2": "2 66864  42.9999  46.9313 0001111 275.9224 255.9619 15.54526567  3416"}}, "geometry": {"type": "Point", "coordinates": [133.67078279025958, 42.96473135764045]}}, {"type": "Feature", "properties": {"norad_id": 66865, "name": "STARLINK-36117", "group": "last-30-days", "lat": 42.92870849907742, "lon": 138.9064497545857, "alt_km": 400.7830731764143, "timestamp": "2025-12-25T09:48:51.006173+00:00", "meta": {"OBJECT_NAME": "STARLINK-36117", "OBJECT_ID": "2025-281T", "EPOCH": "2025-12-25T04:00:01.998720", "MEAN_MOTION": 15.54530497, "ECCENTRICITY": 0.0001001, "INCLINATION": 42.9998, "RA_OF_ASC_NODE": 46.9223, "ARG_OF_PERICENTER": 275.8919, "MEAN_ANOMALY": 259.8248, "EPHEMERIS_TYPE": 0, "CLASSIFICATION_TYPE": "U", "NORAD_CAT_ID": 66865, "ELEMENT_SET_NO": 999, "REV_AT_EPOCH": 338, "BSTAR": -0.033604, "MEAN_MOTION_DOT": -0.02030252, "MEAN_MOTION_DDOT": 0}, "tle": {"line1": "1 66865U 25281T   25359.16668980 -.02030252  00000+0 -33604-1 0  9999", "line2": "2 66865  42.9998  46.9223 0001001 275.8919 259.8248 15.54530497  3388"}}, "geometry": {"type": "Point", "coordinates": [138.9064497545857, 42.92870849907742]}}, {"type": "Feature", "properties": {"norad_id": 66866, "name": "STARLINK-36126", "group": "last-30-days", "lat": 42.82143314491241, "lon": 141.51620165756546, "alt_km": 400.8895193898434, "timestamp": "2025-12-25T09:48:51.006183+00:00", "meta": {"OBJECT_NAME": "STARLINK-36126", "OBJECT_ID": "2025-281U", "EPOCH": "2025-12-25T04:00:01.998720", "MEAN_MOTION": 15.5452497, "ECCENTRICITY": 0.0001124, "INCLINATION": 43.0001, "RA_OF_ASC_NODE": 46.9173, "ARG_OF_PERICENTER": 275.6534, "MEAN_ANOMALY": 261.9831, "EPHEMERIS_TYPE": 0, "CLASSIFICATION_TYPE": "U", "NORAD_CAT_ID": 66866, "ELEMENT_SET_NO": 999, "REV_AT_EPOCH": 341, "BSTAR": -0.033465, "MEAN_MOTION_DOT": -0.02022454, "MEAN_MOTION_DDOT": 0}, "tle": {"line1": "1 66866U 25281U   25359.16668980 -.02022454  00000+0 -33465-1 0  9990", "line2": "2 66866  43.0001  46.9173 0001124 275.6534 261.9831 15.54524970  3412"}}, "geometry": {"type": "Point", "coordinates": [141.51620165756546, 42.82143314491241]}}, {"type": "Feature", "properties": {"norad_id": 66867, "name": "STARLINK-36101", "group": "last-30-days", "lat": 42.65453917434157, "lon": 144.11827244411313, "alt_km": 400.9288441021763, "timestamp": "2025-12-25T09:48:51.006192+00:00", "meta": {"OBJECT_NAME": "STARLINK-36101", "OBJECT_ID": "2025-281V", "EPOCH": "2025-12-25T04:00:01.998720", "MEAN_MOTION": 15.54534897, "ECCENTRICITY": 0.000114, "INCLINATION": 43.0003, "RA_OF_ASC_NODE": 46.9126, "ARG_OF_PERICENTER": 274.1012, "MEAN_ANOMALY": 265.4506, "EPHEMERIS_TYPE": 0, "CLASSIFICATION_TYPE": "U", "NORAD_CAT_ID": 66867, "ELEMENT_SET_NO": 999, "REV_AT_EPOCH": 322, "BSTAR": -0.033734, "MEAN_MOTION_DOT": -0.02037657, "MEAN_MOTION_DDOT": 0}, "tle": {"line1": "1 66867U 25281V   25359.16668980 -.02037657  00000+0 -33734-1 0  9991", "line2": "2 66867  43.0003  46.9126 0001140 274.1012 265.4506 15.54534897  3222"}}, "geometry": {"type": "Point", "coordinates": [144.11827244411313, 42.65453917434157]}}, {"type": "Feature", "properties": {"norad_id": 66868, "name": "STARLINK-36108", "group": "last-30-days", "lat": 42.42878581613173, "lon": 146.70154099955906, "alt_km": 400.9837061314947, "timestamp": "2025-12-25T09:48:51.006204+00:00", "meta": {"OBJECT_NAME": "STARLINK-36108", "OBJECT_ID": "2025-281W", "EPOCH": "2025-12-25T04:00:01.998720", "MEAN_MOTION": 15.54533436, "ECCENTRICITY": 0.0001171, "INCLINATION": 43.0002, "RA_OF_ASC_NODE": 46.9074, "ARG_OF_PERICENTER": 279.175, "MEAN_ANOMALY": 262.2946, "EPHEMERIS_TYPE": 0, "CLASSIFICATION_TYPE": "U", "NORAD_CAT_ID": 66868, "ELEMENT_SET_NO": 999, "REV_AT_EPOCH": 322, "BSTAR": -0.033722, "MEAN_MOTION_DOT": -0.02036913, "MEAN_MOTION_DDOT": 0}, "tle": {"line1": "1 66868U 25281W   25359.16668980 -.02036913  00000+0 -33722-1 0  9993", "line2": "2 66868  43.0002  46.9074 0001171 279.1750 262.2946 15.54533436  3223"}}, "geometry": {"type": "Point", "coordinates": [146.70154099955906, 42.42878581613173]}}]}